{
  "norad_id": 66860,
  "name": "STARLINK-35987",
  "history": [
    {
      "epoch": "2026-03-28T16:35:57.993216",
      "apogee_km": 483.51816951882756,
      "perigee_km": 482.4149040701104,
      "latitude_deg": -10.38844881967961,
      "longitude_deg": -147.60222976002842,
      "semi_major_axis_km": 6861.103536794469,
      "eccentricity": 8.04e-05,
      "inclination_deg": 42.9967,
      "raan_deg": 235.9834,
      "arg_perigee_deg": 266.4458,
      "mean_anomaly_deg": 93.6302,
      "mean_motion_rev_day": 15.27607572
    }
  ]
}